CCSDS_OMM_VERS = 2.0
CREATION_DATE  = 
ORIGINATOR     = 

OBJECT_NAME    = SL-14 R/B
OBJECT_ID      = 1988-001B
CENTER_NAME    = EARTH
REF_FRAME      = TEME
TIME_SYSTEM    = UTC
MEAN_ELEMENT_THEORY = SGP/SGP4

EPOCH          = 2025-11-27T21:23:32.928576
MEAN_MOTION    = 14.85399223
ECCENTRICITY   = .00171626
INCLINATION    = 82.5118
RA_OF_ASC_NODE = 291.1142
ARG_OF_PERICENTER = 210.6955
MEAN_ANOMALY   = 149.3259

EPHEMERIS_TYPE = 0
CLASSIFICATION_TYPE = U
NORAD_CAT_ID   = 18749
ELEMENT_SET_NO = 999
REV_AT_EPOCH   = 2691
BSTAR          = .71553362E-4
MEAN_MOTION_DOT = .641E-5
MEAN_MOTION_DDOT = 0

CCSDS_OMM_VERS = 2.0
CREATION_DATE  = 
ORIGINATOR     = 

OBJECT_NAME    = COSMOS 1933
OBJECT_ID      = 1988-020A
CENTER_NAME    = EARTH
REF_FRAME      = TEME
TIME_SYSTEM    = UTC
MEAN_ELEMENT_THEORY = SGP/SGP4

EPOCH          = 2025-11-27T23:27:49.043808
MEAN_MOTION    = 15.16934137
ECCENTRICITY   = .00044066
INCLINATION    = 82.5143
RA_OF_ASC_NODE = 351.4640
ARG_OF_PERICENTER = 171.3798
MEAN_ANOMALY   = 188.7512

EPHEMERIS_TYPE = 0
CLASSIFICATION_TYPE = U
NORAD_CAT_ID   = 18958
ELEMENT_SET_NO = 999
REV_AT_EPOCH   = 3480
BSTAR          = .21637089E-3
MEAN_MOTION_DOT = .4296E-4
MEAN_MOTION_DDOT = 0

CCSDS_OMM_VERS = 2.0
CREATION_DATE  = 
ORIGINATOR     = 

OBJECT_NAME    = SL-3 R/B
OBJECT_ID      = 1988-032B
CENTER_NAME    = EARTH
REF_FRAME      = TEME
TIME_SYSTEM    = UTC
MEAN_ELEMENT_THEORY = SGP/SGP4

EPOCH          = 2025-11-27T23:16:59.773728
MEAN_MOTION    = 15.18518013
ECCENTRICITY   = .00252579
INCLINATION    = 97.5072
RA_OF_ASC_NODE = 310.7966
ARG_OF_PERICENTER = 225.8318
MEAN_ANOMALY   = 134.0840

EPHEMERIS_TYPE = 0
CLASSIFICATION_TYPE = U
NORAD_CAT_ID   = 19046
ELEMENT_SET_NO = 999
REV_AT_EPOCH   = 3666
BSTAR          = .29833042E-3
MEAN_MOTION_DOT = .6138E-4
MEAN_MOTION_DDOT = 0

CCSDS_OMM_VERS = 2.0
CREATION_DATE  = 
ORIGINATOR     = 

OBJECT_NAME    = SL-16 R/B
OBJECT_ID      = 1988-039B
CENTER_NAME    = EARTH
REF_FRAME      = TEME
TIME_SYSTEM    = UTC
MEAN_ELEMENT_THEORY = SGP/SGP4

EPOCH          = 2025-11-27T21:05:55.569696
MEAN_MOTION    = 14.19592936
ECCENTRICITY   = .00202878
INCLINATION    = 71.0146
RA_OF_ASC_NODE = 283.8191
ARG_OF_PERICENTER = 140.9925
MEAN_ANOMALY   = 219.2668

EPHEMERIS_TYPE = 0
CLASSIFICATION_TYPE = U
NORAD_CAT_ID   = 19120
ELEMENT_SET_NO = 999
REV_AT_EPOCH   = 94393
BSTAR          = -.5676864E-5
MEAN_MOTION_DOT = -.6E-6
MEAN_MOTION_DDOT = 0

CCSDS_OMM_VERS = 2.0
CREATION_DATE  = 
ORIGINATOR     = 

OBJECT_NAME    = COSMOS 1953
OBJECT_ID      = 1988-050A
CENTER_NAME    = EARTH
REF_FRAME      = TEME
TIME_SYSTEM    = UTC
MEAN_ELEMENT_THEORY = SGP/SGP4

EPOCH          = 2025-11-27T21:25:29.712000
MEAN_MOTION    = 15.26675876
ECCENTRICITY   = .0013623
INCLINATION    = 82.5084
RA_OF_ASC_NODE = 260.4751
ARG_OF_PERICENTER = 116.4941
MEAN_ANOMALY   = 243.7696

EPHEMERIS_TYPE = 0
CLASSIFICATION_TYPE = U
NORAD_CAT_ID   = 19210
ELEMENT_SET_NO = 999
REV_AT_EPOCH   = 2224
BSTAR          = .26633919E-3
MEAN_MOTION_DOT = .7038E-4
MEAN_MOTION_DDOT = 0

CCSDS_OMM_VERS = 2.0
CREATION_DATE  = 
ORIGINATOR     = 

OBJECT_NAME    = SL-8 R/B
OBJECT_ID      = 1988-053B
CENTER_NAME    = EARTH
REF_FRAME      = TEME
TIME_SYSTEM    = UTC
MEAN_ELEMENT_THEORY = SGP/SGP4

EPOCH          = 2025-11-27T09:26:31.717824
MEAN_MOTION    = 14.38844927
ECCENTRICITY   = .00194213
INCLINATION    = 74.0470
RA_OF_ASC_NODE = 301.0038
ARG_OF_PERICENTER = 150.4658
MEAN_ANOMALY   = 324.0647

EPHEMERIS_TYPE = 0
CLASSIFICATION_TYPE = U
NORAD_CAT_ID   = 19257
ELEMENT_SET_NO = 999
REV_AT_EPOCH   = 96188
BSTAR          = .96295925E-4
MEAN_MOTION_DOT = .271E-5
MEAN_MOTION_DDOT = 0

CCSDS_OMM_VERS = 2.0
CREATION_DATE  = 
ORIGINATOR     = 

OBJECT_NAME    = COSMOS 1975
OBJECT_ID      = 1988-093A
CENTER_NAME    = EARTH
REF_FRAME      = TEME
TIME_SYSTEM    = UTC
MEAN_ELEMENT_THEORY = SGP/SGP4

EPOCH          = 2025-11-27T23:08:42.470880
MEAN_MOTION    = 15.26146418
ECCENTRICITY   = .00117133
INCLINATION    = 82.5210
RA_OF_ASC_NODE = 219.6150
ARG_OF_PERICENTER = 159.6910
MEAN_ANOMALY   = 200.4796

EPHEMERIS_TYPE = 0
CLASSIFICATION_TYPE = U
NORAD_CAT_ID   = 19573
ELEMENT_SET_NO = 999
REV_AT_EPOCH   = 388
BSTAR          = .39343959E-3
MEAN_MOTION_DOT = .10212E-3
MEAN_MOTION_DDOT = 0

CCSDS_OMM_VERS = 2.0
CREATION_DATE  = 
ORIGINATOR     = 

OBJECT_NAME    = SL-14 R/B
OBJECT_ID      = 1988-093B
CENTER_NAME    = EARTH
REF_FRAME      = TEME
TIME_SYSTEM    = UTC
MEAN_ELEMENT_THEORY = SGP/SGP4

EPOCH          = 2025-11-27T21:34:09.635232
MEAN_MOTION    = 14.85524859
ECCENTRICITY   = .00212077
INCLINATION    = 82.5292
RA_OF_ASC_NODE = 137.5947
ARG_OF_PERICENTER = 19.0663
MEAN_ANOMALY   = 93.3330

EPHEMERIS_TYPE = 0
CLASSIFICATION_TYPE = U
NORAD_CAT_ID   = 19574
ELEMENT_SET_NO = 999
REV_AT_EPOCH   = 98592
BSTAR          = .68394516E-4
MEAN_MOTION_DOT = .617E-5
MEAN_MOTION_DDOT = 0

CCSDS_OMM_VERS = 2.0
CREATION_DATE  = 
ORIGINATOR     = 

OBJECT_NAME    = SL-16 R/B
OBJECT_ID      = 1988-102B
CENTER_NAME    = EARTH
REF_FRAME      = TEME
TIME_SYSTEM    = UTC
MEAN_ELEMENT_THEORY = SGP/SGP4

EPOCH          = 2025-11-27T20:05:02.891328
MEAN_MOTION    = 14.16136606
ECCENTRICITY   = .00137813
INCLINATION    = 71.0009
RA_OF_ASC_NODE = 5.8014
ARG_OF_PERICENTER = 175.7696
MEAN_ANOMALY   = 184.3546

EPHEMERIS_TYPE = 0
CLASSIFICATION_TYPE = U
NORAD_CAT_ID   = 19650
ELEMENT_SET_NO = 999
REV_AT_EPOCH   = 91247
BSTAR          = .88311498E-4
MEAN_MOTION_DOT = .127E-5
MEAN_MOTION_DDOT = 0

CCSDS_OMM_VERS = 2.0
CREATION_DATE  = 
ORIGINATOR     = 

OBJECT_NAME    = INTERCOSMOS 24
OBJECT_ID      = 1989-080A
CENTER_NAME    = EARTH
REF_FRAME      = TEME
TIME_SYSTEM    = UTC
MEAN_ELEMENT_THEORY = SGP/SGP4

EPOCH          = 2025-11-27T21:17:08.738880
MEAN_MOTION    = 12.59400239
ECCENTRICITY   = .11886004
INCLINATION    = 82.6049
RA_OF_ASC_NODE = 170.6103
ARG_OF_PERICENTER = 168.9674
MEAN_ANOMALY   = 194.0180

EPHEMERIS_TYPE = 0
CLASSIFICATION_TYPE = U
NORAD_CAT_ID   = 20261
ELEMENT_SET_NO = 999
REV_AT_EPOCH   = 65398
BSTAR          = .25741012E-3
MEAN_MOTION_DOT = .891E-5
MEAN_MOTION_DDOT = 0

CCSDS_OMM_VERS = 2.0
CREATION_DATE  = 
ORIGINATOR     = 

OBJECT_NAME    = SL-14 R/B
OBJECT_ID      = 1989-080C
CENTER_NAME    = EARTH
REF_FRAME      = TEME
TIME_SYSTEM    = UTC
MEAN_ELEMENT_THEORY = SGP/SGP4

EPOCH          = 2025-11-27T18:47:25.914048
MEAN_MOTION    = 12.50394992
ECCENTRICITY   = .12309158
INCLINATION    = 82.5941
RA_OF_ASC_NODE = 238.6191
ARG_OF_PERICENTER = 57.7636
MEAN_ANOMALY   = 313.6825

EPHEMERIS_TYPE = 0
CLASSIFICATION_TYPE = U
NORAD_CAT_ID   = 20262
ELEMENT_SET_NO = 999
REV_AT_EPOCH   = 64741
BSTAR          = .13419227E-3
MEAN_MOTION_DOT = .472E-5
MEAN_MOTION_DDOT = 0

CCSDS_OMM_VERS = 2.0
CREATION_DATE  = 
ORIGINATOR     = 

OBJECT_NAME    = DELTA 1 R/B
OBJECT_ID      = 1989-089B
CENTER_NAME    = EARTH
REF_FRAME      = TEME
TIME_SYSTEM    = UTC
MEAN_ELEMENT_THEORY = SGP/SGP4

EPOCH          = 2025-11-27T21:04:17.912640
MEAN_MOTION    = 14.50553653
ECCENTRICITY   = .0070723
INCLINATION    = 97.0764
RA_OF_ASC_NODE = 190.4700
ARG_OF_PERICENTER = 84.3842
MEAN_ANOMALY   = 276.5416

EPHEMERIS_TYPE = 0
CLASSIFICATION_TYPE = U
NORAD_CAT_ID   = 20323
ELEMENT_SET_NO = 999
REV_AT_EPOCH   = 88097
BSTAR          = .10765422E-3
MEAN_MOTION_DOT = .401E-5
MEAN_MOTION_DDOT = 0

