SL-14 R/B               
1 18749U 88001B   25331.89135334  .00000641  00000+0  71553-4 0  9991
2 18749  82.5118 291.1142 0017162 210.6955 149.3259 14.85399223 26918
COSMOS 1933             
1 18958U 88020A   25331.97765097  .00004296  00000+0  21637-3 0  9995
2 18958  82.5143 351.4640 0004406 171.3798 188.7512 15.16934137 34806
SL-3 R/B                
1 19046U 88032B   25331.97013627  .00006138  00000+0  29833-3 0  9995
2 19046  97.5072 310.7966 0025257 225.8318 134.0840 15.18518013 36668
SL-16 R/B               
1 19120U 88039B   25331.87911539 -.00000060  00000+0 -56769-5 0  9993
2 19120  71.0146 283.8191 0020287 140.9925 219.2668 14.19592936943936
COSMOS 1953             
1 19210U 88050A   25331.89270500  .00007038  00000+0  26634-3 0  9990
2 19210  82.5084 260.4751 0013623 116.4941 243.7696 15.26675876 22248
SL-8 R/B                
1 19257U 88053B   25331.39342266  .00000271  00000+0  96296-4 0  9992
2 19257  74.0470 301.0038 0019421 150.4658 324.0647 14.38844927961887
COSMOS 1975             
1 19573U 88093A   25331.96438045  .00010212  00000+0  39344-3 0  9997
2 19573  82.5210 219.6150 0011713 159.6910 200.4796 15.26146418  3888
SL-14 R/B               
1 19574U 88093B   25331.89872263  .00000617  00000+0  68395-4 0  9991
2 19574  82.5292 137.5947 0021207  19.0663  93.3330 14.85524859985924
SL-16 R/B               
1 19650U 88102B   25331.83683902  .00000127  00000+0  88311-4 0  9997
2 19650  71.0009   5.8014 0013781 175.7696 184.3546 14.16136606912477
INTERCOSMOS 24          
1 20261U 89080A   25331.88690670  .00000891  00000+0  25741-3 0  9993
2 20261  82.6049 170.6103 1188600 168.9674 194.0180 12.59400239653984
SL-14 R/B               
1 20262U 89080C   25331.78293882  .00000472  00000+0  13419-3 0  9991
2 20262  82.5941 238.6191 1230915  57.7636 313.6825 12.50394992647412
DELTA 1 R/B             
1 20323U 89089B   25331.87798510  .00000401  00000+0  10765-3 0  9999
2 20323  97.0764 190.4700 0070723  84.3842 276.5416 14.50553653880974
